MEAN_MOTION;ECCENTRICITY;INCLINATION;RA_OF_ASC_NODE;ARG_OF_PERICENTER;MEAN_ANOMALY;BSTAR;MEAN_MOTION_DOT;MEAN_MOTION_DDOT;TYPE
14.34217553;0.0001999;86.3971;318.0509;87.7087;272.4337;1.5426E-5;6.3E-7;0;Iridium
14.34217693;0.0002001;86.3969;317.7009;87.7553;272.3871;1.9729E-5;7.5E-7;0;Iridium
14.3421767;0.0002008;86.3969;317.6425;87.6144;272.5282;1.7426E-5;6.9E-7;0;Iridium
14.34217778;0.0002008;86.3968;317.2634;88.1406;272.0019;2.0348E-5;7.7E-7;0;Iridium
14.34217783;0.0002008;86.3968;317.2342;88.1753;271.9673;2.0056E-5;7.6E-7;0;Iridium
14.34217836;0.0002008;86.3967;317.0301;88.6305;271.512;2.1348E-5;8.0E-7;0;Iridium
14.34217975;0.000202;86.3965;316.4759;88.7159;271.4268;2.3407E-5;8.5E-7;0;Iridium
14.34217975;0.000202;86.3965;316.4759;88.7159;271.4268;2.3407E-5;8.5E-7;0;Iridium
14.34218123;0.0002025;86.3963;316.0675;88.8414;271.3013;2.5527E-5;9.1E-7;0;Iridium
14.34218197;0.0002026;86.3962;315.8925;89.3022;270.8405;2.6721E-5;9.5E-7;0;Iridium
14.34218249;0.0002024;86.3962;315.805;89.322;270.8207;2.7092E-5;9.6E-7;0;Iridium
14.34218306;0.0002028;86.3961;315.5424;89.4088;270.734;2.4985E-5;9.0E-7;0;Iridium
14.3421837;0.0002027;86.396;315.3674;89.4444;270.6984;2.5488E-5;9.1E-7;0;Iridium
14.3421841;0.000203;86.3959;315.1924;89.4825;270.6603;2.4386E-5;8.8E-7;0;Iridium
14.34218414;0.0002032;86.3959;315.134;89.5065;270.6364;2.319E-5;8.5E-7;0;Iridium
14.34218482;0.0002042;86.3957;314.6381;89.7593;270.3837;1.8766E-5;7.2E-7;0;Iridium
14.34218555;0.0002044;86.3955;314.3464;89.401;270.742;1.6032E-5;6.5E-7;0;Iridium
14.34218563;0.0002045;86.3955;314.2589;89.5001;270.6429;1.5428E-5;6.3E-7;0;Iridium
14.34218691;0.0002052;86.3954;313.9671;89.4594;270.6837;1.7425E-5;6.9E-7;0;Iridium
14.34218776;0.0002056;86.3953;313.7921;89.6457;270.4974;2.0187E-5;7.6E-7;0;Iridium
14.34218878;0.0002061;86.3952;313.5295;89.5207;270.6225;2.1791E-5;8.1E-7;0;Iridium
14.34218878;0.0002061;86.3952;313.5295;89.5207;270.6225;2.1791E-5;8.1E-7;0;Iridium
14.34218887;0.0002062;86.3952;313.3836;89.6459;270.4973;1.9731E-5;7.5E-7;0;Iridium
14.34218909;0.0002062;86.395;313.121;89.7079;270.4354;1.6176E-5;6.5E-7;0;Iridium
14.34218916;0.0002062;86.395;313.0918;89.7218;270.4214;1.5676E-5;6.4E-7;0;Iridium
14.34218936;0.0002063;86.395;312.9751;89.8777;270.2655;1.6391E-5;6.6E-7;0;Iridium
14.34218925;0.0002068;86.3949;312.6833;89.797;270.3463;1.0516E-5;4.9E-7;0;Iridium
14.34218945;0.0002068;86.3949;312.5374;90.0068;270.1364;1.1897E-5;5.3E-7;0;Iridium
14.34218976;0.0002073;86.3948;312.2747;89.9025;270.2409;1.0791E-5;5.0E-7;0;Iridium
14.3421898;0.0002073;86.3947;312.2455;89.9157;270.2276;1.0373E-5;4.9E-7;0;Iridium
14.34219017;0.0002075;86.3947;312.1288;90.0042;270.1392;1.362E-5;5.8E-7;0;Iridium
14.34219121;0.0002078;86.3946;311.837;89.928;270.2154;1.669E-5;6.7E-7;0;Iridium
14.34219132;0.0002079;86.3946;311.8078;89.9313;270.2121;1.7069E-5;6.8E-7;0;Iridium
14.34219273;0.0002081;86.3945;311.4284;90.1126;270.0309;2.2134E-5;8.2E-7;0;Iridium
14.34219351;0.0002086;86.3945;311.2825;90.3451;269.7984;2.5597E-5;9.1E-7;0;Iridium
14.34219403;0.0002093;86.3943;311.0198;90.441;269.7026;2.3965E-5;8.7E-7;0;Iridium
14.34219446;0.0002097;86.3943;310.8739;90.5944;269.5492;2.5374E-5;9.1E-7;0;Iridium
14.34219471;0.0002104;86.3942;310.6112;90.5028;269.6409;2.1548E-5;8.0E-7;0;Iridium
14.34219525;0.0002108;86.3942;310.4653;90.6587;269.4851;2.3689E-5;8.6E-7;0;Iridium
14.3421957;0.0002112;86.394;310.2026;90.5492;269.5945;2.1691E-5;8.1E-7;0;Iridium
14.34219647;0.0002117;86.394;310.0274;90.7401;269.4038;2.4001E-5;8.7E-7;0;Iridium
14.34219704;0.000212;86.3938;309.7647;90.6839;269.4599;2.0995E-5;7.9E-7;0;Iridium
14.34219761;0.0002122;86.3938;309.6188;90.8767;269.2672;2.28E-5;8.4E-7;0;Iridium
14.34219834;0.0002126;86.3937;309.3561;90.7672;269.3767;2.0841E-5;7.8E-7;0;Iridium
14.34219845;0.0002127;86.3937;309.3269;90.7603;269.3837;2.0529E-5;7.7E-7;0;Iridium
14.34219873;0.0002127;86.3936;309.1809;90.8105;269.3335;2.0645E-5;7.8E-7;0;Iridium
14.34220009;0.0002133;86.3935;308.9182;90.7951;269.3489;2.224E-5;8.2E-7;0;Iridium
14.34220016;0.0002134;86.3935;308.889;90.7938;269.3502;2.2022E-5;8.1E-7;0;Iridium
14.34220027;0.0002132;86.3934;308.7139;90.7672;269.3768;1.9363E-5;7.4E-7;0;Iridium
14.34220044;0.0002135;86.3933;308.4219;90.8384;269.3056;1.5615E-5;6.4E-7;0;Iridium
14.34220046;0.0002133;86.3933;308.276;90.8995;269.2445;1.3259E-5;5.7E-7;0;Iridium
14.34220041;0.0002139;86.3932;308.1008;91.0237;269.1203;1.0583E-5;4.9E-7;0;Iridium
14.3422002;0.0002143;86.3932;307.9256;91.2065;268.9377;8.643E-6;4.4E-7;0;Iridium
14.34219982;0.0002148;86.3931;307.8672;91.3538;268.7904;5.8945E-6;3.6E-7;0;Iridium
14.34219943;0.0002156;86.3931;307.5169;91.3345;268.8098;2.4625E-6;2.7E-7;0;Iridium
14.34219747;0.0002082;86.3931;307.2833;87.6225;272.5209;-2.4091E-6;1.3E-7;0;Iridium
14.34219747;0.0002082;86.3931;307.2833;87.6225;272.5209;-2.4091E-6;1.3E-7;0;Iridium
14.34219512;0.0002081;86.393;306.8453;87.2814;272.862;-1.1274E-5;-1.2E-7;0;Iridium
14.3421893;0.0002113;86.3927;306.8165;88.7451;271.3987;-1.1334E-5;-1.2E-7;0;Iridium
14.34218261;0.000212;86.3928;306.3781;88.3038;271.84;-1.1451E-5;-1.2E-7;0;Iridium
14.34218239;0.0002118;86.3928;306.2614;87.8674;272.2765;-1.121E-5;-1.2E-7;0;Iridium
14.34218011;0.000211;86.3927;305.9694;87.6643;272.4794;-2.8423E-5;-6.0E-7;0;Iridium
14.34218038;0.000211;86.3925;305.5314;87.563;272.5808;-1.561E-5;-2.4E-7;0;Iridium
14.34217998;0.000211;86.3925;305.4146;87.5457;272.598;-1.652E-5;-2.6E-7;0;Iridium
14.34217958;0.0002114;86.3925;305.181;87.4827;272.6611;-1.5691E-5;-2.4E-7;0;Iridium
14.3421795;0.0002114;86.3925;305.0058;87.4999;272.6439;-1.379E-5;-1.9E-7;0;Iridium
14.3421792;0.0002116;86.3924;304.7429;87.3791;272.7647;-1.2884E-5;-1.6E-7;0;Iridium
14.3421792;0.0002116;86.3924;304.7429;87.3791;272.7647;-1.2884E-5;-1.6E-7;0;Iridium
14.34217895;0.0002117;86.3924;304.5969;87.5225;272.6213;-1.2486E-5;-1.5E-7;0;Iridium
14.34217919;0.0002124;86.3924;304.1588;87.9292;272.2147;-8.1394E-6;-3.0E-8;0;Iridium
14.34217924;0.0002126;86.3924;303.896;87.8827;272.2612;-6.3475E-6;2.0E-8;0;Iridium
14.34217888;0.0002129;86.3923;303.4872;87.7978;272.3461;-6.14E-6;3.0E-8;0;Iridium
14.34217897;0.0002129;86.3924;303.3412;87.8543;272.2897;-5.0542E-6;6.0E-8;0;Iridium
14.34217894;0.0002135;86.3924;303.0492;87.8042;272.3398;-4.3953E-6;7.0E-8;0;Iridium
14.34217866;0.0002136;86.3924;302.9032;87.8607;272.2834;-5.2004E-6;5.0E-8;0;Iridium
14.34217831;0.0002137;86.3924;302.6404;87.7931;272.3509;-6.1819E-6;2.0E-8;0;Iridium
14.34217796;0.0002142;86.3924;302.4944;87.7711;272.373;-7.3682E-6;-1.0E-8;0;Iridium
14.34217775;0.0002144;86.3923;302.2023;87.85;272.2941;-7.591E-6;-1.0E-8;0;Iridium
14.34217766;0.0002147;86.3923;302.0855;87.8779;272.2662;-7.3804E-6;-1.0E-8;0;Iridium
14.34217746;0.0002149;86.3923;301.7935;87.7797;272.3645;-7.5043E-6;-1.0E-8;0;Iridium
14.34217746;0.0002149;86.3923;301.7935;87.7797;272.3645;-7.5043E-6;-1.0E-8;0;Iridium
14.34217733;0.0002151;86.3922;301.6475;87.8923;272.2519;-7.4453E-6;-1.0E-8;0;Iridium
14.3421771;0.0002149;86.3922;301.4139;87.7889;272.3553;-7.7979E-6;-2.0E-8;0;Iridium
14.34217694;0.0002151;86.3922;301.2094;87.7954;272.3488;-7.7994E-6;-2.0E-8;0;Iridium
14.34217691;0.0002149;86.3921;300.9758;87.6825;272.4616;-7.3052E-6;-1.0E-8;0;Iridium
14.34217692;0.0002152;86.3921;300.8298;87.6879;272.4563;-6.4563E-6;2.0E-8;0;Iridium
14.34217691;0.0002153;86.392;300.5378;87.4278;272.7165;-5.4049E-6;5.0E-8;0;Iridium
14.34217679;0.0002154;86.3921;300.3917;87.4904;272.6538;-5.222E-6;5.0E-8;0;Iridium
14.34217641;0.0002155;86.392;300.1288;87.5769;272.5674;-6.263E-6;2.0E-8;0;Iridium
14.34217608;0.0002155;86.392;299.9828;87.5614;272.5828;-7.0293E-6;0;0;Iridium
14.34217576;0.0002155;86.392;299.72;87.523;272.6213;-7.4983E-6;-1.0E-8;0;Iridium
14.34217552;0.0002156;86.392;299.574;87.5244;272.6199;-7.392E-6;-1.0E-8;0;Iridium
14.34217501;0.0002157;86.392;299.1651;87.361;272.7833;-7.6111E-6;-2.0E-8;0;Iridium
14.34217492;0.0002157;86.392;299.1359;87.3241;272.8201;-7.9538E-6;-2.0E-8;0;Iridium
14.34217489;0.000216;86.392;298.9022;87.3811;272.7632;-7.0908E-6;0;0;Iridium
14.34217471;0.0002161;86.3921;298.727;87.3822;272.7621;-7.0304E-6;0;0;Iridium
14.34217484;0.0002162;86.3921;298.4642;87.3662;272.7781;-4.7836E-6;6.0E-8;0;Iridium
14.34217484;0.0002162;86.3921;298.4642;87.3662;272.7781;-4.7836E-6;6.0E-8;0;Iridium
14.3421746;0.0002162;86.3922;298.3182;87.3602;272.7841;-5.2784E-6;5.0E-8;0;Iridium
14.34217419;0.0002167;86.3922;298.0553;87.3184;272.826;-6.1864E-6;2.0E-8;0;Iridium
14.34217369;0.0002167;86.3923;297.8801;87.3417;272.8027;-7.7694E-6;-2.0E-8;0;Iridium
14.34217316;0.0002168;86.3923;297.6173;87.0786;273.0658;-9.1174E-6;-6.0E-8;0;Iridium
14.34217281;0.0002169;86.3923;297.4713;87.1329;273.0115;-1.0143E-5;-9.0E-8;0;Iridium
14.34217241;0.000217;86.3923;297.2085;86.972;273.1724;-1.0743E-5;-1.0E-7;0;Iridium
14.34217241;0.000217;86.3923;297.2085;86.972;273.1724;-1.0743E-5;-1.0E-7;0;Iridium
14.34217212;0.0002173;86.3924;297.0624;87.0925;273.052;-1.1038E-5;-1.1E-7;0;Iridium
14.34217173;0.0002172;86.3924;296.7996;87.0616;273.0828;-1.179E-5;-1.3E-7;0;Iridium
14.34217153;0.0002175;86.3924;296.6244;87.1873;272.9572;-1.1655E-5;-1.3E-7;0;Iridium
14.34217143;0.0002173;86.3924;296.3909;87.0255;273.1189;-1.073E-5;-1.0E-7;0;Iridium
14.34217115;0.0002174;86.3924;296.2157;87.0438;273.1006;-1.0886E-5;-1.1E-7;0;Iridium
14.34217115;0.0002173;86.3924;295.9821;86.8184;273.3261;-9.6048E-6;-7.0E-8;0;Iridium
14.3421711;0.0002174;86.3925;295.8068;86.9758;273.1686;-8.7134E-6;-5.0E-8;0;Iridium
14.34217121;0.0002171;86.3924;295.5732;86.8576;273.2868;-7.3399E-6;-1.0E-8;0;Iridium
14.34217151;0.0002165;86.3925;295.1353;86.6151;273.5292;-4.516E-6;7.0E-8;0;Iridium
14.34217227;0.0002244;86.3929;294.697;90.1026;270.0427;2.2756E-6;2.6E-7;0;Iridium
14.34217227;0.0002244;86.3929;294.697;90.1026;270.0427;2.2756E-6;2.6E-7;0;Iridium
14.34217281;0.0002243;86.393;294.5509;90.098;270.0473;5.5196E-6;3.5E-7;0;Iridium
14.3421737;0.0002254;86.393;294.2881;90.4703;269.6752;1.0064E-5;4.8E-7;0;Iridium
14.34217392;0.0002254;86.3931;294.1421;90.6168;269.5286;1.1952E-5;5.3E-7;0;Iridium
